GSAT0101 (GALILEO-PFM)  
1 37846U 11060A   25321.09120301 -.00000083  00000+0  00000+0 0  9995
2 37846  57.0584 347.5164 0002422 304.9888  55.0418  1.70475830 87507
GSAT0102 (GALILEO-FM2)  
1 37847U 11060B   25322.18044704 -.00000081  00000+0  00000+0 0  9997
2 37847  57.0590 347.4873 0004423 302.9697  51.0019  1.70476046 87525
GSAT0103 (GALILEO-FM3)  
1 38857U 12055A   25321.71779440  .00000032  00000+0  00000+0 0  9999
2 38857  55.6776 107.3534 0001959 267.7118  92.2398  1.70473465 81401
GSAT0201 (GALILEO 5)    
1 40128U 14050A   25321.59529720 -.00000091  00000+0  00000+0 0  9996
2 40128  49.1060 282.0880 1645518 171.3308 191.9206  1.85519711 74397
GSAT0202 (GALILEO 6)    
1 40129U 14050B   25320.23467928 -.00000094  00000+0  00000+0 0  9991
2 40129  49.1235 281.2266 1645940 172.0328 190.9583  1.85520442 76538
GSAT0203 (GALILEO 7)    
1 40544U 15017A   25320.86936097 -.00000084  00000+0  00000+0 0  9992
2 40544  56.8522 347.3860 0006303 263.8580  96.1230  1.70476230 65587
GSAT0204 (GALILEO 8)    
1 40545U 15017B   25320.53818771 -.00000085  00000+0  00000+0 0  9996
2 40545  56.8585 347.4127 0006177 255.1530 104.8312  1.70475751 28621
GSAT0205 (GALILEO 9)    
1 40889U 15045A   25320.89309448 -.00000012  00000+0  00000+0 0  9993
2 40889  55.0130 227.4724 0005509  34.8562 325.2238  1.70472998 63393
GSAT0206 (GALILEO 10)   
1 40890U 15045B   25320.52715171 -.00000015  00000+0  00000+0 0  9992
2 40890  55.0123 227.4776 0003354  26.6868 333.3722  1.70473027 63413
GSAT0209 (GALILEO 12)   
1 41174U 15079A   25321.86866647  .00000031  00000+0  00000+0 0  9995
2 41174  55.6976 107.0635 0002364   5.6767 354.2988  1.70474436 61175
GSAT0208 (GALILEO 11)   
1 41175U 15079B   25320.91565210  .00000034  00000+0  00000+0 0  9996
2 41175  55.6959 107.0868 0001946  19.1445 340.8405  1.70474199 61578
GSAT0211 (GALILEO 14)   
1 41549U 16030A   25321.03948102 -.00000011  00000+0  00000+0 0  9994
2 41549  55.1618 227.5308 0003715 358.7417   1.3021  1.70473074 59058
GSAT0210 (GALILEO 13)   
1 41550U 16030B   25321.29697219 -.00000008  00000+0  00000+0 0  9990
2 41550  55.1610 227.5218 0001737 248.3084 111.7196  1.70473562 59059
