[
    {
        "OBJECT_NAME": "GSAT0101 (GALILEO-PFM)",
        "OBJECT_ID": "2011-060A",
        "EPOCH": "2025-11-17T02:11:19.940064",
        "MEAN_MOTION": 1.7047583,
        "ECCENTRICITY": 0.0002422,
        "INCLINATION": 57.0584,
        "RA_OF_ASC_NODE": 347.5164,
        "ARG_OF_PERICENTER": 304.9888,
        "MEAN_ANOMALY": 55.0418,
        "EPHEMERIS_TYPE": 0,
        "CLASSIFICATION_TYPE": "U",
        "NORAD_CAT_ID": 37846,
        "ELEMENT_SET_NO": 999,
        "REV_AT_EPOCH": 8750,
        "BSTAR": 0,
        "MEAN_MOTION_DOT": -8.3e-7,
        "MEAN_MOTION_DDOT": 0
    },
    {
        "OBJECT_NAME": "GSAT0102 (GALILEO-FM2)",
        "OBJECT_ID": "2011-060B",
        "EPOCH": "2025-11-18T04:19:50.624256",
        "MEAN_MOTION": 1.70476046,
        "ECCENTRICITY": 0.0004423,
        "INCLINATION": 57.059,
        "RA_OF_ASC_NODE": 347.4873,
        "ARG_OF_PERICENTER": 302.9697,
        "MEAN_ANOMALY": 51.0019,
        "EPHEMERIS_TYPE": 0,
        "CLASSIFICATION_TYPE": "U",
        "NORAD_CAT_ID": 37847,
        "ELEMENT_SET_NO": 999,
        "REV_AT_EPOCH": 8752,
        "BSTAR": 0,
        "MEAN_MOTION_DOT": -8.1e-7,
        "MEAN_MOTION_DDOT": 0
    },
    {
        "OBJECT_NAME": "GSAT0103 (GALILEO-FM3)",
        "OBJECT_ID": "2012-055A",
        "EPOCH": "2025-11-17T17:13:37.436160",
        "MEAN_MOTION": 1.70473465,
        "ECCENTRICITY": 0.0001959,
        "INCLINATION": 55.6776,
        "RA_OF_ASC_NODE": 107.3534,
        "ARG_OF_PERICENTER": 267.7118,
        "MEAN_ANOMALY": 92.2398,
        "EPHEMERIS_TYPE": 0,
        "CLASSIFICATION_TYPE": "U",
        "NORAD_CAT_ID": 38857,
        "ELEMENT_SET_NO": 999,
        "REV_AT_EPOCH": 8140,
        "BSTAR": 0,
        "MEAN_MOTION_DOT": 3.2e-7,
        "MEAN_MOTION_DDOT": 0
    },
    {
        "OBJECT_NAME": "GSAT0201 (GALILEO 5)",
        "OBJECT_ID": "2014-050A",
        "EPOCH": "2025-11-17T14:17:13.678080",
        "MEAN_MOTION": 1.85519711,
        "ECCENTRICITY": 0.1645518,
        "INCLINATION": 49.106,
        "RA_OF_ASC_NODE": 282.088,
        "ARG_OF_PERICENTER": 171.3308,
        "MEAN_ANOMALY": 191.9206,
        "EPHEMERIS_TYPE": 0,
        "CLASSIFICATION_TYPE": "U",
        "NORAD_CAT_ID": 40128,
        "ELEMENT_SET_NO": 999,
        "REV_AT_EPOCH": 7439,
        "BSTAR": 0,
        "MEAN_MOTION_DOT": -9.1e-7,
        "MEAN_MOTION_DDOT": 0
    },
    {
        "OBJECT_NAME": "GSAT0202 (GALILEO 6)",
        "OBJECT_ID": "2014-050B",
        "EPOCH": "2025-11-16T05:37:56.289792",
        "MEAN_MOTION": 1.85520442,
        "ECCENTRICITY": 0.16459401,
        "INCLINATION": 49.1235,
        "RA_OF_ASC_NODE": 281.2266,
        "ARG_OF_PERICENTER": 172.0328,
        "MEAN_ANOMALY": 190.9583,
        "EPHEMERIS_TYPE": 0,
        "CLASSIFICATION_TYPE": "U",
        "NORAD_CAT_ID": 40129,
        "ELEMENT_SET_NO": 999,
        "REV_AT_EPOCH": 7653,
        "BSTAR": 0,
        "MEAN_MOTION_DOT": -9.4e-7,
        "MEAN_MOTION_DDOT": 0
    },
    {
        "OBJECT_NAME": "GSAT0203 (GALILEO 7)",
        "OBJECT_ID": "2015-017A",
        "EPOCH": "2025-11-16T20:51:52.787808",
        "MEAN_MOTION": 1.7047623,
        "ECCENTRICITY": 0.00063033,
        "INCLINATION": 56.8522,
        "RA_OF_ASC_NODE": 347.386,
        "ARG_OF_PERICENTER": 263.858,
        "MEAN_ANOMALY": 96.123,
        "EPHEMERIS_TYPE": 0,
        "CLASSIFICATION_TYPE": "U",
        "NORAD_CAT_ID": 40544,
        "ELEMENT_SET_NO": 999,
        "REV_AT_EPOCH": 6558,
        "BSTAR": 0,
        "MEAN_MOTION_DOT": -8.4e-7,
        "MEAN_MOTION_DDOT": 0
    },
    {
        "OBJECT_NAME": "GSAT0204 (GALILEO 8)",
        "OBJECT_ID": "2015-017B",
        "EPOCH": "2025-11-16T12:54:59.418144",
        "MEAN_MOTION": 1.70475751,
        "ECCENTRICITY": 0.00061774,
        "INCLINATION": 56.8585,
        "RA_OF_ASC_NODE": 347.4127,
        "ARG_OF_PERICENTER": 255.153,
        "MEAN_ANOMALY": 104.8312,
        "EPHEMERIS_TYPE": 0,
        "CLASSIFICATION_TYPE": "U",
        "NORAD_CAT_ID": 40545,
        "ELEMENT_SET_NO": 999,
        "REV_AT_EPOCH": 2862,
        "BSTAR": 0,
        "MEAN_MOTION_DOT": -8.5e-7,
        "MEAN_MOTION_DDOT": 0
    },
    {
        "OBJECT_NAME": "GSAT0205 (GALILEO 9)",
        "OBJECT_ID": "2015-045A",
        "EPOCH": "2025-11-16T21:26:03.363072",
        "MEAN_MOTION": 1.70472998,
        "ECCENTRICITY": 0.0005509,
        "INCLINATION": 55.013,
        "RA_OF_ASC_NODE": 227.4724,
        "ARG_OF_PERICENTER": 34.8562,
        "MEAN_ANOMALY": 325.2238,
        "EPHEMERIS_TYPE": 0,
        "CLASSIFICATION_TYPE": "U",
        "NORAD_CAT_ID": 40889,
        "ELEMENT_SET_NO": 999,
        "REV_AT_EPOCH": 6339,
        "BSTAR": 0,
        "MEAN_MOTION_DOT": -1.2e-7,
        "MEAN_MOTION_DDOT": 0
    },
    {
        "OBJECT_NAME": "GSAT0206 (GALILEO 10)",
        "OBJECT_ID": "2015-045B",
        "EPOCH": "2025-11-16T12:39:05.907744",
        "MEAN_MOTION": 1.70473027,
        "ECCENTRICITY": 0.00033546,
        "INCLINATION": 55.0123,
        "RA_OF_ASC_NODE": 227.4776,
        "ARG_OF_PERICENTER": 26.6868,
        "MEAN_ANOMALY": 333.3722,
        "EPHEMERIS_TYPE": 0,
        "CLASSIFICATION_TYPE": "U",
        "NORAD_CAT_ID": 40890,
        "ELEMENT_SET_NO": 999,
        "REV_AT_EPOCH": 6341,
        "BSTAR": 0,
        "MEAN_MOTION_DOT": -1.5e-7,
        "MEAN_MOTION_DDOT": 0
    },
    {
        "OBJECT_NAME": "GSAT0209 (GALILEO 12)",
        "OBJECT_ID": "2015-079A",
        "EPOCH": "2025-11-17T20:50:52.783008",
        "MEAN_MOTION": 1.70474436,
        "ECCENTRICITY": 0.0002364,
        "INCLINATION": 55.6976,
        "RA_OF_ASC_NODE": 107.0635,
        "ARG_OF_PERICENTER": 5.6767,
        "MEAN_ANOMALY": 354.2988,
        "EPHEMERIS_TYPE": 0,
        "CLASSIFICATION_TYPE": "U",
        "NORAD_CAT_ID": 41174,
        "ELEMENT_SET_NO": 999,
        "REV_AT_EPOCH": 6117,
        "BSTAR": 0,
        "MEAN_MOTION_DOT": 3.1e-7,
        "MEAN_MOTION_DDOT": 0
    },
    {
        "OBJECT_NAME": "GSAT0208 (GALILEO 11)",
        "OBJECT_ID": "2015-079B",
        "EPOCH": "2025-11-16T21:58:32.341440",
        "MEAN_MOTION": 1.70474199,
        "ECCENTRICITY": 0.00019468,
        "INCLINATION": 55.6959,
        "RA_OF_ASC_NODE": 107.0868,
        "ARG_OF_PERICENTER": 19.1445,
        "MEAN_ANOMALY": 340.8405,
        "EPHEMERIS_TYPE": 0,
        "CLASSIFICATION_TYPE": "U",
        "NORAD_CAT_ID": 41175,
        "ELEMENT_SET_NO": 999,
        "REV_AT_EPOCH": 6157,
        "BSTAR": 0,
        "MEAN_MOTION_DOT": 3.4e-7,
        "MEAN_MOTION_DDOT": 0
    },
    {
        "OBJECT_NAME": "GSAT0211 (GALILEO 14)",
        "OBJECT_ID": "2016-030A",
        "EPOCH": "2025-11-17T00:56:51.160128",
        "MEAN_MOTION": 1.70473074,
        "ECCENTRICITY": 0.00037153,
        "INCLINATION": 55.1618,
        "RA_OF_ASC_NODE": 227.5308,
        "ARG_OF_PERICENTER": 358.7417,
        "MEAN_ANOMALY": 1.3021,
        "EPHEMERIS_TYPE": 0,
        "CLASSIFICATION_TYPE": "U",
        "NORAD_CAT_ID": 41549,
        "ELEMENT_SET_NO": 999,
        "REV_AT_EPOCH": 5905,
        "BSTAR": 0,
        "MEAN_MOTION_DOT": -1.1e-7,
        "MEAN_MOTION_DDOT": 0
    },
    {
        "OBJECT_NAME": "GSAT0210 (GALILEO 13)",
        "OBJECT_ID": "2016-030B",
        "EPOCH": "2025-11-17T07:07:38.397216",
        "MEAN_MOTION": 1.70473562,
        "ECCENTRICITY": 0.00017371,
        "INCLINATION": 55.161,
        "RA_OF_ASC_NODE": 227.5218,
        "ARG_OF_PERICENTER": 248.3084,
        "MEAN_ANOMALY": 111.7196,
        "EPHEMERIS_TYPE": 0,
        "CLASSIFICATION_TYPE": "U",
        "NORAD_CAT_ID": 41550,
        "ELEMENT_SET_NO": 999,
        "REV_AT_EPOCH": 5905,
        "BSTAR": 0,
        "MEAN_MOTION_DOT": -8.0e-8,
        "MEAN_MOTION_DDOT": 0
    }
]